{"type": "FeatureCollection", "features": [ {"type": "Feature", "properties": {"norad_id": 34529, "name": "IRIDIUM 33 DEB", "group": "iridium-33-debris", "lat": -73.59492064517671, "lon": -132.59306269373752, "alt_km": 763.3082718785308, "timestamp": "2025-12-13T20:38:51.391701+00:00", "meta": {"OBJECT_NAME": "IRIDIUM 33 DEB", "OBJECT_ID": "1997-051HW", "EPOCH": "2025-12-13T04:28:09.694848", "MEAN_MOTION": 14.40616367, "ECCENTRICITY": 0.00048664, "INCLINATION": 86.3641, "RA_OF_ASC_NODE": 35.2216, "ARG_OF_PERICENTER": 175.3623, "MEAN_ANOMALY": 184.7623, "EPHEMERIS_TYPE": 0, "CLASSIFICATION_TYPE": "U", "NORAD_CAT_ID": 34529, "ELEMENT_SET_NO": 999, "REV_AT_EPOCH": 88148, "BSTAR": 0.00016827646, "MEAN_MOTION_DOT": 5.56e-06, "MEAN_MOTION_DDOT": 0}, "tle": {"line1": "1 34529U 97051HW  25347.18622332  .00000556  00000+0  16828-3 0  9996", "line2": "2 34529  86.3641  35.2216 0004866 175.3623 184.7623 14.40616367881481"}}, "geometry": {"type": "Point", "coordinates": [-132.59306269373752, -73.59492064517671]}}, {"type": "Feature", "properties": {"norad_id": 34538, "name": "IRIDIUM 33 DEB", "group": "iridium-33-debris", "lat": 79.82923769588142, "lon": 163.78606925646815, "alt_km": 758.9532796568092, "timestamp": "2025-12-13T20:38:51.391711+00:00", "meta": {"OBJECT_NAME": "IRIDIUM 33 DEB", "OBJECT_ID": "1997-051JF", "EPOCH": "2025-12-12T19:29:58.055136", "MEAN_MOTION": 14.42648871, "ECCENTRICITY": 0.0032777, "INCLINATION": 86.2773, "RA_OF_ASC_NODE": 5.524, "ARG_OF_PERICENTER": 327.8022, "MEAN_ANOMALY": 92.8362, "EPHEMERIS_TYPE": 0, "CLASSIFICATION_TYPE": "U", "NORAD_CAT_ID": 34538, "ELEMENT_SET_NO": 999, "REV_AT_EPOCH": 87757, "BSTAR": 0.0014020322, "MEAN_MOTION_DOT": 4.708e-05, "MEAN_MOTION_DDOT": 0}, "tle": {"line1": "1 34538U 97051JF  25346.81247749  .00004708  00000+0  14020-2 0  9994", "line2": "2 34538  86.2773   5.5240 0032777 327.8022  92.8362 14.42648871877573"}}, "geometry": {"type": "Point", "coordinates": [163.78606925646815, 79.82923769588142]}}, {"type": "Feature", "properties": {"norad_id": 34540, "name": "IRIDIUM 33 DEB", "group": "iridium-33-debris", "lat": -70.58554951997964, "lon": -63.4555717739262, "alt_km": 659.379313017138, "timestamp": "2025-12-13T20:38:51.391721+00:00", "meta": {"OBJECT_NAME": "IRIDIUM 33 DEB", "OBJECT_ID": "1997-051JH", "EPOCH": "2025-12-12T16:27:37.491840", "MEAN_MOTION": 14.75322014, "ECCENTRICITY": 0.00164195, "INCLINATION": 86.3102, "RA_OF_ASC_NODE": 307.6317, "ARG_OF_PERICENTER": 159.2955, "MEAN_ANOMALY": 15.9185, "EPHEMERIS_TYPE": 0, "CLASSIFICATION_TYPE": "U", "NORAD_CAT_ID": 34540, "ELEMENT_SET_NO": 999, "REV_AT_EPOCH": 89020, "BSTAR": 0.0023425707, "MEAN_MOTION_DOT": 0.0001595, "MEAN_MOTION_DDOT": 0}, "tle": {"line1": "1 34540U 97051JH  25346.68585060  .00015950  00000+0  23426-2 0  9994", "line2": "2 34540  86.3102 307.6317 0016419 159.2955  15.9185 14.75322014890209"}}, "geometry": {"type": "Point", "coordinates": [-63.4555717739262, -70.58554951997964]}}, {"type": "Feature", "properties": {"norad_id": 34648, "name": "IRIDIUM 33 DEB", "group": "iridium-33-debris", "lat": 3.0074899508669914, "lon": 101.3040309793728, "alt_km": 917.8759324334678, "timestamp": "2025-12-13T20:38:51.391734+00:00", "meta": {"OBJECT_NAME": "IRIDIUM 33 DEB", "OBJECT_ID": "1997-051JZ", "EPOCH": "2025-12-12T06:21:55.340640", "MEAN_MOTION": 14.11481969, "ECCENTRICITY": 0.01828059, "INCLINATION": 86.3902, "RA_OF_ASC_NODE": 282.138, "ARG_OF_PERICENTER": 300.3991, "MEAN_ANOMALY": 57.9233, "EPHEMERIS_TYPE": 0, "CLASSIFICATION_TYPE": "U", "NORAD_CAT_ID": 34648, "ELEMENT_SET_NO": 999, "REV_AT_EPOCH": 84954, "BSTAR": 0.010984589, "MEAN_MOTION_DOT": 0.00023366, "MEAN_MOTION_DDOT": 0}, "tle": {"line1": "1 34648U 97051JZ  25346.26522385  .00023366  00000+0  10985-1 0  9993", "line2": "2 34648  86.3902 282.1380 0182805 300.3991  57.9233 14.11481969849541"}}, "geometry": {"type": "Point", "coordinates": [101.3040309793728, 3.0074899508669914]}}, {"type": "Feature", "properties": {"norad_id": 34651, "name": "IRIDIUM 33 DEB", "group": "iridium-33-debris", "lat": -64.13819902174372, "lon": 132.39406911116183, "alt_km": 820.9497382726549, "timestamp": "2025-12-13T20:38:51.391747+00:00", "meta": {"OBJECT_NAME": "IRIDIUM 33 DEB", "OBJECT_ID": "1997-051KC", "EPOCH": "2025-12-13T04:06:39.786912", "MEAN_MOTION": 14.25830516, "ECCENTRICITY": 0.01420795, "INCLINATION": 86.283, "RA_OF_ASC_NODE": 140.394, "ARG_OF_PERICENTER": 202.5687, "MEAN_ANOMALY": 156.9218, "EPHEMERIS_TYPE": 0, "CLASSIFICATION_TYPE": "U", "NORAD_CAT_ID": 34651, "ELEMENT_SET_NO": 999, "REV_AT_EPOCH": 85902, "BSTAR": 0.0047329688, "MEAN_MOTION_DOT": 0.00012543, "MEAN_MOTION_DDOT": 0}, "tle": {"line1": "1 34651U 97051KC  25347.17129383  .00012543  00000+0  47330-2 0  9999", "line2": "2 34651  86.2830 140.3940 0142079 202.5687 156.9218 14.25830516859023"}}, "geometry": {"type": "Point", "coordinates": [132.39406911116183, -64.13819902174372]}}, {"type": "Feature", "properties": {"norad_id": 34652, "name": "IRIDIUM 33 DEB", "group": "iridium-33-debris", "lat": 48.7846251873265, "lon": 155.30265899644158, "alt_km": 699.7657688322543, "timestamp": "2025-12-13T20:38:51.391757+00:00", "meta": {"OBJECT_NAME": "IRIDIUM 33 DEB", "OBJECT_ID": "1997-051KD", "EPOCH": "2025-12-11T23:57:08.973792", "MEAN_MOTION": 14.62047586, "ECCENTRICITY": 0.0025954, "INCLINATION": 86.3316, "RA_OF_ASC_NODE": 340.3318, "ARG_OF_PERICENTER": 300.945, "MEAN_ANOMALY": 114.4446, "EPHEMERIS_TYPE": 0, "CLASSIFICATION_TYPE": "U", "NORAD_CAT_ID": 34652, "ELEMENT_SET_NO": 999, "REV_AT_EPOCH": 88473, "BSTAR": 0.0015132, "MEAN_MOTION_DOT": 7.652e-05, "MEAN_MOTION_DDOT": 0}, "tle": {"line1": "1 34652U 97051KD  25345.99802053  .00007652  00000+0  15132-2 0  9990", "line2": "2 34652  86.3316 340.3318 0025954 300.9450 114.4446 14.62047586884734"}}, "geometry": {"type": "Point", "coordinates": [155.30265899644158, 48.7846251873265]}}, {"type": "Feature", "properties": {"norad_id": 34690, "name": "IRIDIUM 33 DEB", "group": "iridium-33-debris", "lat": -34.245698105904424, "lon": 34.03308307292275, "alt_km": 711.5153599689138, "timestamp": "2025-12-13T20:38:51.391767+00:00", "meta": {"OBJECT_NAME": "IRIDIUM 33 DEB", "OBJECT_ID": "1997-051KM", "EPOCH": "2025-12-13T04:35:08.687328", "MEAN_MOTION": 14.55098948, "ECCENTRICITY": 0.00108146, "INCLINATION": 86.3784, "RA_OF_ASC_NODE": 36.795, "ARG_OF_PERICENTER": 28.1662, "MEAN_ANOMALY": 34.2367, "EPHEMERIS_TYPE": 0, "CLASSIFICATION_TYPE": "U", "NORAD_CAT_ID": 34690, "ELEMENT_SET_NO": 999, "REV_AT_EPOCH": 88101, "BSTAR": 0.00067419119, "MEAN_MOTION_DOT": 2.931e-05, "MEAN_MOTION_DDOT": 0}, "tle": {"line1": "1 34690U 97051KM  25347.19107277  .00002931  00000+0  67419-3 0  9993", "line2": "2 34690  86.3784  36.7950 0010814  28.1662  34.2367 14.55098948881015"}}, "geometry": {"type": "Point", "coordinates": [34.03308307292275, -34.245698105904424]}}, {"type": "Feature", "properties": {"norad_id": 34693, "name": "IRIDIUM 33 DEB", "group": "iridium-33-debris", "lat": -51.977880452251675, "lon": -61.471302702415834, "alt_km": 489.7908685704306, "timestamp": "2025-12-13T20:38:51.391777+00:00", "meta": {"OBJECT_NAME": "IRIDIUM 33 DEB", "OBJECT_ID": "1997-051KQ", "EPOCH": "2025-12-12T21:33:47.712960", "MEAN_MOTION": 15.27980869, "ECCENTRICITY": 0.00139664, "INCLINATION": 86.3056, "RA_OF_ASC_NODE": 303.7467, "ARG_OF_PERICENTER": 52.9772, "MEAN_ANOMALY": 7.323, "EPHEMERIS_TYPE": 0, "CLASSIFICATION_TYPE": "U", "NORAD_CAT_ID": 34693, "ELEMENT_SET_NO": 999, "REV_AT_EPOCH": 88917, "BSTAR": 0.0063067576, "MEAN_MOTION_DOT": 0.00176337, "MEAN_MOTION_DDOT": 0}, "tle": {"line1": "1 34693U 97051KQ  25346.89846890  .00176337  00000+0  63068-2 0  9990", "line2": "2 34693  86.3056 303.7467 0013966  52.9772   7.3230 15.27980869889175"}}, "geometry": {"type": "Point", "coordinates": [-61.471302702415834, -51.977880452251675]}}, {"type": "Feature", "properties": {"norad_id": 34696, "name": "IRIDIUM 33 DEB", "group": "iridium-33-debris", "lat": 35.23669226678935, "lon": -155.69998809074312, "alt_km": 624.7235844791148, "timestamp": "2025-12-13T20:38:51.391787+00:00", "meta": {"OBJECT_NAME": "IRIDIUM 33 DEB", "OBJECT_ID": "1997-051KT", "EPOCH": "2025-12-13T03:54:02.435616", "MEAN_MOTION": 14.65143747, "ECCENTRICITY": 0.00741248, "INCLINATION": 86.1855, "RA_OF_ASC_NODE": 27.3258, "ARG_OF_PERICENTER": 165.9902, "MEAN_ANOMALY": 260.687, "EPHEMERIS_TYPE": 0, "CLASSIFICATION_TYPE": "U", "NORAD_CAT_ID": 34696, "ELEMENT_SET_NO": 999, "REV_AT_EPOCH": 86679, "BSTAR": 0.0067723801, "MEAN_MOTION_DOT": 0.00038084, "MEAN_MOTION_DDOT": 0}, "tle": {"line1": "1 34696U 97051KT  25347.16252819  .00038084  00000+0  67724-2 0  9995", "line2": "2 34696  86.1855  27.3258 0074124 165.9902 260.6870 14.65143747866797"}}, "geometry": {"type": "Point", "coordinates": [-155.69998809074312, 35.23669226678935]}}, {"type": "Feature", "properties": {"norad_id": 34765, "name": "IRIDIUM 33 DEB", "group": "iridium-33-debris", "lat": -63.97241544116859, "lon": 24.74870077609656, "alt_km": 763.8719520816503, "timestamp": "2025-12-13T20:38:51.391797+00:00", "meta": {"OBJECT_NAME": "IRIDIUM 33 DEB", "OBJECT_ID": "1997-051LJ", "EPOCH": "2025-12-13T02:44:34.828800", "MEAN_MOTION": 14.40467179, "ECCENTRICITY": 0.00154785, "INCLINATION": 86.3397, "RA_OF_ASC_NODE": 32.601, "ARG_OF_PERICENTER": 210.1302, "MEAN_ANOMALY": 179.3412, "EPHEMERIS_TYPE": 0, "CLASSIFICATION_TYPE": "U", "NORAD_CAT_ID": 34765, "ELEMENT_SET_NO": 999, "REV_AT_EPOCH": 87619, "BSTAR": 0.00062555047, "MEAN_MOTION_DOT": 2.01e-05, "MEAN_MOTION_DDOT": 0}, "tle": {"line1": "1 34765U 97051LJ  25347.11429200  .00002010  00000+0  62555-3 0  9995", "line2": "2 34765  86.3397  32.6010 0015478 210.1302 179.3412 14.40467179876190"}}, "geometry": {"type": "Point", "coordinates": [24.74870077609656, -63.97241544116859]}}]}